{
    "links": {
        "self": "http://www.neowsapp.com/rest/v1/neo/3435026?api_key=iIulBulltgU6a56xZRHN4H3l9WmuAYTsLGpBGhQ2"
    },
    "id": "3435026",
    "neo_reference_id": "3435026",
    "name": "(2008 UT95)",
    "designation": "2008 UT95",
    "nasa_jpl_url": "http://ssd.jpl.nasa.gov/sbdb.cgi?sstr=3435026",
    "absolute_magnitude_h": 27.4,
    "estimated_diameter": {
        "kilometers": {
            "estimated_diameter_min": 0.0088014652,
            "estimated_diameter_max": 0.0196806745
        },
        "meters": {
            "estimated_diameter_min": 8.801465209,
            "estimated_diameter_max": 19.6806745089
        },
        "miles": {
            "estimated_diameter_min": 0.0054689752,
            "estimated_diameter_max": 0.0122290004
        },
        "feet": {
            "estimated_diameter_min": 28.8761991163,
            "estimated_diameter_max": 64.5691441559
        }
    },
    "is_potentially_hazardous_asteroid": false,
    "close_approach_data": [
        {
            "close_approach_date": "2008-11-02",
            "close_approach_date_full": "2008-Nov-02 07:39",
            "epoch_date_close_approach": 1225611540000,
            "relative_velocity": {
                "kilometers_per_second": "14.5049153742",
                "kilometers_per_hour": "52217.6953469612",
                "miles_per_hour": "32446.0452004493"
            },
            "miss_distance": {
                "astronomical": "0.0039652268",
                "lunar": "1.5424732252",
                "kilometers": "593189.483346916",
                "miles": "368590.8531668008"
            },
            "orbiting_body": "Earth"
        },
        {
            "close_approach_date": "2008-11-02",
            "close_approach_date_full": "2008-Nov-02 10:52",
            "epoch_date_close_approach": 1225623120000,
            "relative_velocity": {
                "kilometers_per_second": "15.3567792457",
                "kilometers_per_hour": "55284.4052846334",
                "miles_per_hour": "34351.5794947768"
            },
            "miss_distance": {
                "astronomical": "0.0063437149",
                "lunar": "2.4677050961",
                "kilometers": "949006.236927263",
                "miles": "589685.1315637094"
            },
            "orbiting_body": "Moon"
        }
    ],
    "orbital_data": {
        "orbit_id": "8",
        "orbit_determination_date": "2017-04-06 09:02:21",
        "first_observation_date": "2008-10-30",
        "last_observation_date": "2008-11-01",
        "data_arc_in_days": 2,
        "observations_used": 32,
        "orbit_uncertainty": "7",
        "minimum_orbit_intersection": ".000782722",
        "jupiter_tisserand_invariant": "3.831",
        "epoch_osculation": "2459000.5",
        "eccentricity": ".5750865222622384",
        "semi_major_axis": "1.814839522024587",
        "inclination": "3.807089249654455",
        "ascending_node_longitude": "219.8643742537649",
        "orbital_period": "893.0088634706459",
        "perihelion_distance": ".7711497728394043",
        "perihelion_argument": "247.6752916640512",
        "aphelion_distance": "2.858529271209771",
        "perihelion_time": "2459282.349371089711",
        "mean_anomaly": "246.3776410931097",
        "mean_motion": ".4031314970389804",
        "equinox": "J2000",
        "orbit_class": {
            "orbit_class_type": "APO",
            "orbit_class_description": "Near-Earth asteroid orbits which cross the Earth’s orbit similar to that of 1862 Apollo",
            "orbit_class_range": "a (semi-major axis) > 1.0 AU; q (perihelion) < 1.017 AU"
        }
    },
    "is_sentry_object": false
}